{
  "norad_id": 66296,
  "name": "BANDWAGON-4 OBJECT D",
  "history": [
    {
      "epoch": "2026-03-28T16:52:52.285152Z",
      "apogee_km": 508.04470952966676,
      "perigee_km": 500.11199282728467,
      "latitude_deg": 5.177199807945575e-05,
      "longitude_deg": 112.96027426226067,
      "height_km": 501.5192817859557,
      "semi_major_axis_km": 6882.215351178475,
      "eccentricity": 0.00057632,
      "inclination_deg": 45.4052,
      "raan_deg": 192.2981,
      "arg_perigee_deg": 311.0824,
      "mean_anomaly_deg": 48.9565,
      "mean_motion_rev_day": 15.20583855
    },
    {
      "epoch": "2026-03-29T22:50:19.711392Z",
      "apogee_km": 507.92254826023327,
      "perigee_km": 500.05627777015707,
      "latitude_deg": 2.5096856874317633e-06,
      "longitude_deg": 15.672734657166782,
      "height_km": 501.1682360346711,
      "semi_major_axis_km": 6882.126413015195,
      "eccentricity": 0.0005715,
      "inclination_deg": 45.4057,
      "raan_deg": 185.6052,
      "arg_perigee_deg": 316.828,
      "mean_anomaly_deg": 43.2158,
      "mean_motion_rev_day": 15.20613331
    },
    {
      "epoch": "2026-03-29T22:50:19.712256Z",
      "apogee_km": 507.92268590276217,
      "perigee_km": 500.05614012762817,
      "latitude_deg": 3.6348217957820485e-06,
      "longitude_deg": 15.672732150511589,
      "height_km": 501.16813566266654,
      "semi_major_axis_km": 6882.126413015195,
      "eccentricity": 0.00057152,
      "inclination_deg": 45.4057,
      "raan_deg": 185.6052,
      "arg_perigee_deg": 316.828,
      "mean_anomaly_deg": 43.2158,
      "mean_motion_rev_day": 15.20613331
    },
    {
      "epoch": "2026-03-30T14:36:20.733120Z",
      "apogee_km": 507.8455842115436,
      "perigee_km": 500.04584458800673,
      "latitude_deg": -5.076525620882436e-06,
      "longitude_deg": 134.99804509940444,
      "height_km": 501.0081181310342,
      "semi_major_axis_km": 6882.082714399775,
      "eccentricity": 0.00056667,
      "inclination_deg": 45.4057,
      "raan_deg": 182.0823,
      "arg_perigee_deg": 319.9375,
      "mean_anomaly_deg": 40.1093,
      "mean_motion_rev_day": 15.20627814
    },
    {
      "epoch": "2026-03-30T22:29:21.022368Z",
      "apogee_km": 507.8160747676575,
      "perigee_km": 500.0292995140453,
      "latitude_deg": 1.0297536722009904e-05,
      "longitude_deg": 14.661995057805722,
      "height_km": 500.92554092381204,
      "semi_major_axis_km": 6882.059687140852,
      "eccentricity": 0.00056573,
      "inclination_deg": 45.4057,
      "raan_deg": 180.3212,
      "arg_perigee_deg": 321.4345,
      "mean_anomaly_deg": 38.6137,
      "mean_motion_rev_day": 15.20635446
    },
    {
      "epoch": "2026-03-31T12:40:45.269472Z",
      "apogee_km": 507.74141145036083,
      "perigee_km": 500.03849632141555,
      "latitude_deg": 1.3223054386684462e-05,
      "longitude_deg": 158.05760372939366,
      "height_km": 500.80889382454956,
      "semi_major_axis_km": 6882.026953885887,
      "eccentricity": 0.00055964,
      "inclination_deg": 45.4056,
      "raan_deg": 177.1506,
      "arg_perigee_deg": 324.307,
      "mean_anomaly_deg": 35.7442,
      "mean_motion_rev_day": 15.20646295
    },
    {
      "epoch": "2026-04-01T12:19:44.855040Z",
      "apogee_km": 507.6434867880798,
      "perigee_km": 500.03339834369035,
      "latitude_deg": 8.425042998141106e-06,
      "longitude_deg": 157.05366086106974,
      "height_km": 500.6189506731587,
      "semi_major_axis_km": 6881.975442565885,
      "eccentricity": 0.0005529,
      "inclination_deg": 45.4052,
      "raan_deg": 171.8662,
      "arg_perigee_deg": 329.1332,
      "mean_anomaly_deg": 30.9229,
      "mean_motion_rev_day": 15.20663368
    },
    {
      "epoch": "2026-04-02T13:33:19.289376Z",
      "apogee_km": 507.4980175864848,
      "perigee_km": 500.0504132691485,
      "latitude_deg": 4.448812656362548e-05,
      "longitude_deg": 131.98731629119015,
      "height_km": 500.4439379193771,
      "semi_major_axis_km": 6881.911215427816,
      "eccentricity": 0.0005411,
      "inclination_deg": 45.4044,
      "raan_deg": 166.2293,
      "arg_perigee_deg": 335.0549,
      "mean_anomaly_deg": 25.0076,
      "mean_motion_rev_day": 15.20684656
    },
    {
      "epoch": "2026-04-02T21:26:18.450240Z",
      "apogee_km": 507.43370369708464,
      "perigee_km": 500.0388555831805,
      "latitude_deg": -1.007820415547293e-05,
      "longitude_deg": 11.655511992716812,
      "height_km": 500.3818008165298,
      "semi_major_axis_km": 6881.873279640133,
      "eccentricity": 0.00053727,
      "inclination_deg": 45.4043,
      "raan_deg": 164.4678,
      "arg_perigee_deg": 336.8808,
      "mean_anomaly_deg": 23.1836,
      "mean_motion_rev_day": 15.2069723
    },
    {
      "epoch": "2026-04-03T14:46:52.088160Z",
      "apogee_km": 507.3356741964426,
      "perigee_km": 500.0326855603553,
      "latitude_deg": -1.1887511133893799e-05,
      "longitude_deg": 106.92761380232481,
      "height_km": 500.2829923045443,
      "semi_major_axis_km": 6881.821179878399,
      "eccentricity": 0.0005306,
      "inclination_deg": 45.4038,
      "raan_deg": 160.5923,
      "arg_perigee_deg": 340.7272,
      "mean_anomaly_deg": 19.3413,
      "mean_motion_rev_day": 15.20714499
    }
  ]
}